CUBESAT XI-IV (CO-57)   
1 27848U 03031J   21171.49536643  .00000046  00000-0  40678-4 0  9997
2 27848  98.6848 180.2263 0011030  84.3034 275.9401 14.21891582932242